GLOBALSTAR M035         
1 25851U 99037A   24350.88584334 -.00000041  00000+0  86247-3 0  9991
2 25851  51.9943 103.7424 0014015  49.7091 106.4589 11.04535058 76004
GLOBALSTAR M032         
1 25852U 99037B   24350.86110188 -.00000043  00000+0  76527-3 0  9994
2 25852  51.9969 301.6434 0010339 220.6111 139.3918 11.19054926114269
GLOBALSTAR M051         
1 25853U 99037C   24350.71544701 -.00000092  00000+0 -49499-3 0  9994
2 25853  51.9771 123.4927 0000888 179.3236 180.7576 11.42199767111428
GLOBALSTAR M030         
1 25854U 99037D   24351.14939411 -.00000104  00000+0 -61143-3 0  9993
2 25854  51.9892 300.1921 0004175  75.5578 284.5702 11.55100774128998
GLOBALSTAR M048         
1 25872U 99041A   24350.59560390 -.00000061  00000+0  23221-3 0  9998
2 25872  51.9392  51.7185 0013378 224.3379 290.9377 11.33852376104151
GLOBALSTAR M026         
1 25873U 99041B   24350.89597042 -.00000050  00000+0  53184-3 0  9995
2 25873  51.9985 223.6089 0001256 357.9641  15.1130 11.06824536128191
GLOBALSTAR M043         
1 25874U 99041C   24350.83294924 -.00000082  00000+0 -40502-3 0  9999
2 25874  51.9364 151.4927 0012949   4.1795 140.7019 11.25688731102227
GLOBALSTAR M028         
1 25875U 99041D   24350.56665509 -.00000077  00000+0  15195-3 0  9994
2 25875  51.9645  20.5861 0063351  32.9323 327.5461 12.50572042167203
